NORAD_CAT_ID,OBJECT_NAME,OBJECT_TYPE,EPOCH,MEAN_MOTION,ECCENTRICITY,INCLINATION,RA_OF_ASC_NODE,ARG_OF_PERICENTER,MEAN_ANOMALY,BSTAR,MEAN_MOTION_DOT,MEAN_MOTION_DDOT,TLE_LINE0,TLE_LINE1,TLE_LINE2,SEMIMAJOR_AXIS,PERIOD,APOGEE,PERIGEE,DECAYED
52302.0,STARLINK-3564,PAYLOAD,2023-01-01 03:22:31,15.08848177,0.0002203,53.2155,272.491,41.4684,318.6475,-0.00042287,-7.014e-05,0.0,0 STARLINK-3564,1 52302U 22041AT  23001.14064674 -.00007014  00000-0 -42287-3 0  9999,2 52302  53.2155 272.4910 0002203  41.4684 318.6475 15.08848177 40191,6917.855,95.437,541.244,538.196,0.0
52302.0,STARLINK-3564,PAYLOAD,2023-01-01 11:19:28,15.088216,0.0002316,53.2161,271.0047,42.4867,317.6304,0.00068319,0.00010596,0.0,0 STARLINK-3564,1 52302U 22041AT  23001.47185587  .00010596  00000-0  68319-3 0  9993,2 52302  53.2161 271.0047 0002316  42.4867 317.6304 15.08821600 40241,6917.937,95.439,541.404,538.1990000000002,0.0
52302.0,STARLINK-3564,PAYLOAD,2023-01-01 17:41:01,15.08824203,0.0002743,53.216,269.8151,50.8485,309.2751,0.00014808,2.068e-05,0.0,0 STARLINK-3564,1 52302U 22041AT  23001.73682154  .00002068  00000-0  14808-3 0  9993,2 52302  53.2160 269.8151 0002743  50.8485 309.2751 15.08824203 39078,6917.929,95.439,541.691,537.896,0.0
52302.0,STARLINK-3564,PAYLOAD,2023-01-02 00:02:34,15.08820399,0.0002604,53.216,268.6249,53.0912,307.0319,0.00047484,7.273e-05,0.0,0 STARLINK-3564,1 52302U 22041AT  23002.00178766  .00007273  00000-0  47484-3 0  9992,2 52302  53.2160 268.6249 0002604  53.0912 307.0319 15.08820399 40327,6917.94,95.439,541.607,538.004,0.0
52302.0,STARLINK-3564,PAYLOAD,2023-01-02 11:10:17,15.08809993,0.0002141,53.2161,266.5442,46.1321,313.9848,0.00044032,6.721e-05,0.0,0 STARLINK-3564,1 52302U 22041AT  23002.46547975  .00006721  00000-0  44032-3 0  9997,2 52302  53.2161 266.5442 0002141  46.1321 313.9848 15.08809993 40390,6917.972,95.439,541.318,538.356,0.0
52302.0,STARLINK-3564,PAYLOAD,2023-01-02 17:31:49,15.08835813,0.0002108,53.2163,265.3547,42.4335,317.682,0.00064161,9.937e-05,0.0,0 STARLINK-3564,1 52302U 22041AT  23002.73043063  .00009937  00000-0  64161-3 0  9993,2 52302  53.2163 265.3547 0002108  42.4335 317.6820 15.08835813 40438,6917.893,95.438,541.216,538.3,0.0
52302.0,STARLINK-3564,PAYLOAD,2023-01-03 03:04:07,15.08842918,0.0002106,53.2161,263.5693,38.5712,321.543,0.00061375,9.494e-05,0.0,0 STARLINK-3564,1 52302U 22041AT  23003.12786973  .00009494  00000-0  61375-3 0  9993,2 52302  53.2161 263.5693 0002106  38.5712 321.5430 15.08842918 39287,6917.871,95.437,541.193,538.28,0.0
52302.0,STARLINK-3564,PAYLOAD,2023-01-03 23:44:09,15.08836283,0.0001989,53.2161,259.7052,35.9154,324.1971,0.00020789,3.022e-05,0.0,0 STARLINK-3564,1 52302U 22041AT  23003.98899550  .00003022  00000-0  20789-3 0  9998,2 52302  53.2161 259.7052 0001989  35.9154 324.1971 15.08836283 40629,6917.892,95.438,541.133,538.381,0.0
52302.0,STARLINK-3564,PAYLOAD,2023-01-05 02:45:41,15.08873694,0.00022,53.2167,254.6492,35.4127,324.7011,0.00093778,0.00014682,0.0,0 STARLINK-3564,1 52302U 22041AT  23005.11505999  .00014682  00000-0  93778-3 0  9998,2 52302  53.2167 254.6492 0002200  35.4127 324.7011 15.08873694 40795,6917.776999999999,95.435,541.164,538.12,0.0
52302.0,STARLINK-3564,PAYLOAD,2023-01-05 09:07:14,15.08839889,0.0002627,53.216,253.4573,48.43600000000001,311.6857,-0.00021311,-3.679e-05,0.0,0 STARLINK-3564,1 52302U 22041AT  23005.38002896 -.00003679  00000-0 -21311-3 0  9995,2 52302  53.2160 253.4573 0002627  48.4360 311.6857 15.08839889 40837,6917.880999999999,95.438,541.563,537.928,0.0
52302.0,STARLINK-3564,PAYLOAD,2023-01-05 15:28:47,15.08834132,0.0003411,53.2158,252.2684,52.5866,307.5436,-8.0765e-05,-1.574e-05,0.0,0 STARLINK-3564,1 52302U 22041AT  23005.64499302 -.00001574  00000-0 -80765-4 0  9997,2 52302  53.2158 252.2684 0003411  52.5866 307.5436 15.08834132 39665,6917.898,95.438,542.123,537.404,0.0
52302.0,STARLINK-3564,PAYLOAD,2023-01-06 08:58:02,15.08830083,0.0001969,53.2169,249.0016,56.0316,304.0863,0.00077193,0.00012015,0.0,0 STARLINK-3564,1 52302U 22041AT  23006.37364104  .00012015  00000-0  77193-3 0  9999,2 52302  53.2169 249.0016 0001969  56.0316 304.0863 15.08830083 40989,6917.911,95.438,541.138,538.414,0.0
52302.0,STARLINK-3564,PAYLOAD,2023-01-06 16:54:58,15.08841607,0.0001845,53.2153,247.514,51.7215,308.3943,0.00098007,0.00015345,0.0,0 STARLINK-3564,1 52302U 22041AT  23006.70484163  .00015345  00000-0  98007-3 0  9990,2 52302  53.2153 247.5140 0001845  51.7215 308.3943 15.08841607 39827,6917.875,95.437,541.0169999999998,538.464,0.0
52302.0,STARLINK-3564,PAYLOAD,2023-01-07 00:51:53,15.08854914,0.0001868,53.2148,246.0273,50.8267,309.2891,0.0011129,0.00017475,0.0,0 STARLINK-3564,1 52302U 22041AT  23007.03603912  .00017475  00000-0  11129-2 0  9997,2 52302  53.2148 246.0273 0001868  50.8267 309.2891 15.08854914 39876,6917.835,95.437,540.992,538.408,0.0
52302.0,STARLINK-3564,PAYLOAD,2023-01-07 15:10:22,15.08850285,0.0002285,53.2129,243.3507,61.4456,298.6766,0.00097903,0.00015332,0.0,0 STARLINK-3564,1 52302U 22041AT  23007.63220012  .00015332  00000-0  97903-3 0  9994,2 52302  53.2129 243.3507 0002285  61.4456 298.6766 15.08850285 41172,6917.849,95.437,541.295,538.133,0.0
52302.0,STARLINK-3564,PAYLOAD,2023-01-08 02:18:03,15.08849031,0.0001974,53.2135,241.2685,58.8223,301.2963,0.00046222,7.078e-05,0.0,0 STARLINK-3564,1 52302U 22041AT  23008.09587842  .00007078  00000-0  46222-3 0  9998,2 52302  53.2135 241.2685 0001974  58.8223 301.2963 15.08849031 41244,6917.853,95.437,541.0830000000002,538.352,0.0
52302.0,STARLINK-3564,PAYLOAD,2023-01-08 08:39:36,15.08842311,0.0001696,53.214,240.0793,60.8371,299.2791,0.00026823,3.984e-05,0.0,0 STARLINK-3564,1 52302U 22041AT  23008.36083829  .00003984  00000-0  26823-3 0  9991,2 52302  53.2140 240.0793 0001696  60.8371 299.2791 15.08842311 41288,6917.873000000001,95.437,540.9119999999998,538.565,0.0
52302.0,STARLINK-3564,PAYLOAD,2023-01-08 21:22:41,15.08842709,0.0001911,53.2137,237.7015,58.7148,301.4031,0.00022067,3.226e-05,0.0,0 STARLINK-3564,1 52302U 22041AT  23008.89075971  .00003226  00000-0  22067-3 0  9993,2 52302  53.2137 237.7015 0001911  58.7148 301.4031 15.08842709 40151,6917.871999999999,95.437,541.059,538.415,0.0
52302.0,STARLINK-3564,PAYLOAD,2023-01-09 00:33:27,15.08845805,0.000196,53.2135,237.1065,57.7503,302.3679,0.00021337,3.11e-05,0.0,0 STARLINK-3564,1 52302U 22041AT  23009.02323881  .00003110  00000-0  21337-3 0  9996,2 52302  53.2135 237.1065 0001960  57.7503 302.3679 15.08845805 40176,6917.863,95.437,541.0840000000002,538.372,0.0
52302.0,STARLINK-3564,PAYLOAD,2023-01-09 21:13:28,15.08844492,0.0002,53.2128,233.2394,62.9792,297.1404,0.00018642,2.68e-05,0.0,0 STARLINK-3564,1 52302U 22041AT  23009.88435974  .00002680  00000-0  18642-3 0  9993,2 52302  53.2128 233.2394 0002000  62.9792 297.1404 15.08844492 40307,6917.866999999998,95.437,541.115,538.3480000000002,0.0
52302.0,STARLINK-3564,PAYLOAD,2023-01-10 08:21:12,15.08806778,0.0003057,53.2147,231.1575,73.0369,287.0957,-0.00050622,-8.329e-05,0.0,0 STARLINK-3564,1 52302U 22041AT  23010.34805666 -.00008329  00000-0 -50622-3 0  9997,2 52302  53.2147 231.1575 0003057  73.0369 287.0957 15.08806778 41589,6917.982,95.44,541.962,537.732,0.0
52302.0,STARLINK-3564,PAYLOAD,2023-01-10 09:56:35,15.08810337,0.0002146,53.2143,230.8606,67.4777,292.6442,-0.00043662,-7.225e-05,0.0,0 STARLINK-3564,1 52302U 22041AT  23010.41429485 -.00007225  00000-0 -43662-3 0  9996,2 52302  53.2143 230.8606 0002146  67.4777 292.6442 15.08810337 40388,6917.971,95.439,541.321,538.351,0.0
52302.0,STARLINK-3564,PAYLOAD,2023-01-10 16:18:08,15.08805757,0.0002077,53.214,229.6718,66.6919,293.4291,-0.0003827,-6.368e-05,0.0,0 STARLINK-3564,1 52302U 22041AT  23010.67926502 -.00006368  00000-0 -38270-3 0  9992,2 52302  53.2140 229.6718 0002077  66.6919 293.4291 15.08805757 40423,6917.985,95.44,541.2869999999998,538.413,0.0
52302.0,STARLINK-3564,PAYLOAD,2023-01-11 09:47:22,15.08830311,1.99e-05,53.2237,226.3991,198.1247,161.9738,0.00013856,1.918e-05,0.0,0 STARLINK-3564,1 52302U 22041AT  23011.40789908  .00001918  00000-0  13856-3 0  9998,2 52302  53.2237 226.3991 0000199 198.1247 161.9738 15.08830311 41740,6917.91,95.438,539.913,539.637,0.0
52302.0,STARLINK-3564,PAYLOAD,2023-01-11 16:08:55,15.08846835,0.0001742,53.2166,225.2084,89.5392,270.58,0.0010136,0.00015883,0.0,0 STARLINK-3564,1 52302U 22041AT  23011.67286014  .00015883  00000-0  10136-2 0  9990,2 52302  53.2166 225.2084 0001742  89.5392 270.5800 15.08846835 41780,6917.859,95.437,540.93,538.519,0.0
52302.0,STARLINK-3564,PAYLOAD,2023-01-11 20:55:04,15.08856739,0.000207,53.2149,224.3178,75.7132,284.4089,0.0011401,0.00017912,0.0,0 STARLINK-3564,1 52302U 22041AT  23011.87158155  .00017912  00000-0  11401-2 0  9997,2 52302  53.2149 224.3178 0002070  75.7132 284.4089 15.08856739 40606,6917.8290000000015,95.436,541.126,538.262,0.0
52302.0,STARLINK-3564,PAYLOAD,2023-01-12 15:59:41,15.08863617,0.0001658,53.2142,220.7494,72.6831,287.4343,-0.00010922,-2.027e-05,0.0,0 STARLINK-3564,1 52302U 22041AT  23012.66644791 -.00002027  00000-0 -10922-3 0  9992,2 52302  53.2142 220.7494 0001658  72.6831 287.4343 15.08863617 41939,6917.808000000001,95.436,540.82,538.526,0.0
52302.0,STARLINK-3564,PAYLOAD,2023-01-12 20:45:50,15.08866913,0.000162,53.2147,219.8573,73.9989,286.1181,0.00038589,5.863e-05,0.0,0 STARLINK-3564,1 52302U 22041AT  23012.86516538  .00005863  00000-0  38589-3 0  9999,2 52302  53.2147 219.8573 0001620  73.9989 286.1181 15.08866913 40755,6917.798000000002,95.436,540.784,538.5419999999998,0.0
52302.0,STARLINK-3564,PAYLOAD,2023-01-13 14:15:04,15.08851916,0.000195,53.2146,216.586,79.3232,280.7979,-4.3289e-05,-9.77e-06,0.0,0 STARLINK-3564,1 52302U 22041AT  23013.59380294 -.00000977  00000-0 -43289-4 0  9995,2 52302  53.2146 216.5860 0001950  79.3232 280.7979 15.08851916 42073,6917.844,95.437,541.058,538.36,0.0
